$$SOE
2460721.500000000, A.D. 2025-Feb-15 00:00:00.0000, 3.282760008901782E+08, -2.544674683501955E+08, 8.752440116808414E+06,
2460728.500000000, A.D. 2025-Feb-22 00:00:00.0000, 3.342931705830022E+08, -2.453519275904579E+08, 8.418844634730309E+06,
2460735.500000000, A.D. 2025-Mar-01 00:00:00.0000, 3.400828907063943E+08, -2.360695094350508E+08, 8.079520686808214E+06,
2460742.500000000, A.D. 2025-Mar-08 00:00:00.0000, 3.456400705303775E+08, -2.266257275821164E+08, 7.734671399638146E+06,
2460749.500000000, A.D. 2025-Mar-15 00:00:00.0000, 3.509597426217947E+08, -2.170262690688343E+08, 7.384506044672877E+06,
2460756.500000000, A.D. 2025-Mar-22 00:00:00.0000, 3.560370674916395E+08, -2.072769920341152E+08, 7.029240209548667E+06,
2460763.500000000, A.D. 2025-Mar-29 00:00:00.0000, 3.608673396631797E+08, -1.973839254382922E+08, 6.669095649765454E+06,
2460770.500000000, A.D. 2025-Apr-05 00:00:00.0000, 3.654459954723114E+08, -1.873532675907723E+08, 6.304300046667948E+06,
2460777.500000000, A.D. 2025-Apr-12 00:00:00.0000, 3.697686206607113E+08, -1.771913833728976E+08, 5.935086856400222E+06,
2460784.500000000, A.D. 2025-Apr-19 00:00:00.0000, 3.738309575598133E+08, -1.669048010295261E+08, 5.561695194498070E+06,
2460791.500000000, A.D. 2025-Apr-26 00:00:00.0000, 3.776289121213395E+08, -1.565002087249491E+08, 5.184369714133263E+06,
2460798.500000000, A.D. 2025-May-03 00:00:00.0000, 3.811585608913718E+08, -1.459844508371961E+08, 4.803360468744539E+06,
2460805.500000000, A.D. 2025-May-10 00:00:00.0000, 3.844161579392601E+08, -1.353645239762722E+08, 4.418922756823584E+06,
2460812.500000000, A.D. 2025-May-17 00:00:00.0000, 3.873981417599447E+08, -1.246475727628451E+08, 4.031316941864789E+06,
2460819.500000000, A.D. 2025-May-24 00:00:00.0000, 3.901011423038218E+08, -1.138408854183418E+08, 3.640808226748541E+06,
2460826.500000000, A.D. 2025-May-31 00:00:00.0000, 3.925219885306997E+08, -1.029518888516606E+08, 3.247666369340360E+06,
2460833.500000000, A.D. 2025-Jun-07 00:00:00.0000, 3.946577160677499E+08, -9.198814203403054E+07, 2.852165474698693E+06,
2460840.500000000, A.D. 2025-Jun-14 00:00:00.0000, 3.965055725906122E+08, -8.095732832938674E+07, 2.454584026800189E+06,
2460847.500000000, A.D. 2025-Jun-21 00:00:00.0000, 3.980630221245322E+08, -6.986725005567786E+07, 2.055204780910879E+06,
2460854.500000000, A.D. 2025-Jun-28 00:00:00.0000, 3.993277513698296E+08, -5.872582351564296E+07, 1.654314373732414E+06,
2460861.500000000, A.D. 2025-Jul-05 00:00:00.0000, 4.002976765117949E+08, -4.754107234459424E+07, 1.252202966783535E+06,
2460868.500000000, A.D. 2025-Jul-12 00:00:00.0000, 4.009709493004104E+08, -3.632111998675800E+07, 8.491639665878639E+05,
2460875.500000000, A.D. 2025-Jul-19 00:00:00.0000, 4.013459625642792E+08, -2.507418188189103E+07, 4.454937573552914E+05,
2460882.500000000, A.D. 2025-Jul-26 00:00:00.0000, 4.014213553440086E+08, -1.380855742477512E+07, 4.149142250167951E+04,
2460889.500000000, A.D. 2025-Aug-02 00:00:00.0000, 4.011960176888061E+08, -2.532621682384296E+06, -3.625415486398744E+05,
2460896.500000000, A.D. 2025-Aug-09 00:00:00.0000, 4.006690951216849E+08, 8.745183107677352E+06, -7.663015713367159E+05,
2460903.500000000, A.D. 2025-Aug-16 00:00:00.0000, 3.998399928339825E+08, 2.001635618127436E+07, -1.169483304420153E+06,
2460910.500000000, A.D. 2025-Aug-23 00:00:00.0000, 3.987083798842894E+08, 3.127234703399263E+07, -1.571780042395750E+06,
2460917.500000000, A.D. 2025-Aug-30 00:00:00.0000, 3.972741937095978E+08, 4.250456504540689E+07, -1.972884131925976E+06,
2460924.500000000, A.D. 2025-Sep-06 00:00:00.0000, 3.955376435101198E+08, 5.370439092539877E+07, -2.372487199864451E+06,
2460931.500000000, A.D. 2025-Sep-13 00:00:00.0000, 3.934992108229681E+08, 6.486318748129155E+07, -2.770280241267771E+06,
2460938.500000000, A.D. 2025-Sep-20 00:00:00.0000, 3.911596505422761E+08, 7.597230803776933E+07, -3.165954001326401E+06,
2460945.500000000, A.D. 2025-Sep-27 00:00:00.0000, 3.885199934248224E+08, 8.702310559778830E+07, -3.559199493334115E+06,
2460952.500000000, A.D. 2025-Oct-04 00:00:00.0000, 3.855815480476856E+08, 9.800694326084226E+07, -3.949708422589220E+06,
2460959.500000000, A.D. 2025-Oct-11 00:00:00.0000, 3.823459018300977E+08, 1.089152049312489E+08, -4.337173557908997E+06,
2460966.500000000, A.D. 2025-Oct-18 00:00:00.0000, 3.788149213901741E+08, 1.197393060167993E+08, -4.721289098143555E+06,
2460973.500000000, A.D. 2025-Oct-25 00:00:00.0000, 3.749907523647058E+08, 1.304707041033493E+08, -5.101751044570908E+06,
2460980.500000000, A.D. 2025-Nov-01 00:00:00.0000, 3.708758187226437E+08, 1.411009095953418E+08, -5.478257580553785E+06,
2460987.500000000, A.D. 2025-Nov-08 00:00:00.0000, 3.664728216011399E+08, 1.516214962649496E+08, -5.850509463280216E+06,
2460994.500000000, A.D. 2025-Nov-15 00:00:00.0000, 3.617847378096656E+08, 1.620241116243874E+08, -6.218210445111685E+06,
2461001.500000000, A.D. 2025-Nov-22 00:00:00.0000, 3.568148184049348E+08, 1.723004873123006E+08, -6.581067742852770E+06,
2461008.500000000, A.D. 2025-Nov-29 00:00:00.0000, 3.515665871821578E+08, 1.824424505976056E+08, -6.938792447547823E+06,
2461015.500000000, A.D. 2025-Dec-06 00:00:00.0000, 3.460438368038224E+08, 1.924419368361532E+08, -7.291099675856374E+06,
2461022.500000000, A.D. 2025-Dec-13 00:00:00.0000, 3.402506230069978E+08, 2.022909994835960E+08, -7.637708777021363E+06,
2461029.500000000, A.D. 2025-Dec-20 00:00:00.0000, 3.341912603910931E+08, 2.119818186561858E+08, -7.978343831678137E+06,
2461036.500000000, A.D. 2025-Dec-27 00:00:00.0000, 3.278703187171950E+08, 2.215067107995092E+08, -8.312734131417841E+06,
2461043.500000000, A.D. 2026-Jan-03 00:00:00.0000, 3.212926182675619E+08, 2.308581388214878E+08, -8.640614554422662E+06,
2461050.500000000, A.D. 2026-Jan-10 00:00:00.0000, 3.144632243864275E+08, 2.400287219837156E+08, -8.961725901607335E+06,
2461057.500000000, A.D. 2026-Jan-17 00:00:00.0000, 3.073874414481954E+08, 2.490112454331845E+08, -9.275815221019745E+06,
2461064.500000000, A.D. 2026-Jan-24 00:00:00.0000, 3.000708063462383E+08, 2.577986693716213E+08, -9.582636124750316E+06,
2461071.500000000, A.D. 2026-Jan-31 00:00:00.0000, 2.925190815427557E+08, 2.663841378308031E+08, -9.881949100083113E+06,
2461078.500000000, A.D. 2026-Feb-07 00:00:00.0000, 2.847382477599610E+08, 2.747609869738283E+08, -1.017352182421494E+07,
2461085.500000000, A.D. 2026-Feb-14 00:00:00.0000, 2.767344965865930E+08, 2.829227528862925E+08, -1.045712950609940E+07,
2461092.500000000, A.D. 2026-Feb-21 00:00:00.0000, 2.685142234109040E+08, 2.908631794146036E+08, -1.073255524316370E+07,
2461099.500000000, A.D. 2026-Feb-28 00:00:00.0000, 2.600840196185010E+08, 2.985762271834268E+08, -1.099959019855592E+07,
2461106.500000000, A.D. 2026-Mar-07 00:00:00.0000, 2.514506620171826E+08, 3.060560818242797E+08, -1.125803356829305E+07,
2461113.500000000, A.D. 2026-Mar-14 00:00:00.0000, 2.426211022925768E+08, 3.132971590720584E+08, -1.150769278283842E+07,
2461120.500000000, A.D. 2026-Mar-21 00:00:00.0000, 2.336024583094077E+08, 3.202941096127375E+08, -1.174838386992607E+07,
2461127.500000000, A.D. 2026-Mar-28 00:00:00.0000, 2.244020052761407E+08, 3.270418246935338E+08, -1.197993170991179E+07,
2461134.500000000, A.D. 2026-Apr-04 00:00:00.0000, 2.150271661950441E+08, 3.335354415153996E+08, -1.220217020650817E+07,
2461141.500000000, A.D. 2026-Apr-11 00:00:00.0000, 2.054855018968577E+08, 3.397703480365920E+08, -1.241494242665918E+07,
2461148.500000000, A.D. 2026-Apr-18 00:00:00.0000, 1.957847008445578E+08, 3.457421871739348E+08, -1.261810072388352E+07,
2461155.500000000, A.D. 2026-Apr-25 00:00:00.0000, 1.859325687792242E+08, 3.514468604149243E+08, -1.281150684744912E+07,
2461162.500000000, A.D. 2026-May-02 00:00:00.0000, 1.759370182688962E+08, 3.568805308127086E+08, -1.299503204235040E+07,
2461169.500000000, A.D. 2026-May-09 00:00:00.0000, 1.658060583169003E+08, 3.620396253001814E+08, -1.316855715698414E+07,
2461176.500000000, A.D. 2026-May-16 00:00:00.0000, 1.555477844392607E+08, 3.669208364644621E+08, -1.333197278214157E+07,
2461183.500000000, A.D. 2026-May-23 00:00:00.0000, 1.451703692942953E+08, 3.715211248077880E+08, -1.348517934304558E+07,
2461190.500000000, A.D. 2026-May-30 00:00:00.0000, 1.346820518153539E+08, 3.758377218153830E+08, -1.362808692810772E+07,
2461197.500000000, A.D. 2026-Jun-06 00:00:00.0000, 1.240911245522885E+08, 3.798681305588997E+08, -1.376061509244545E+07,
2461204.500000000, A.D. 2026-Jun-13 00:00:00.0000, 1.134059229118580E+08, 3.836101240469359E+08, -1.388269295650981E+07,
2461211.500000000, A.D. 2026-Jun-20 00:00:00.0000, 1.026348158240649E+08, 3.870617442604051E+08, -1.399425931589392E+07,
2461218.500000000, A.D. 2026-Jun-27 00:00:00.0000, 9.178619616014588E+07, 3.902213015418005E+08, -1.409526263494503E+07,
2461225.500000000, A.D. 2026-Jul-04 00:00:00.0000, 8.086847092393494E+07, 3.930873735753177E+08, -1.418566098805785E+07,
2461232.500000000, A.D. 2026-Jul-11 00:00:00.0000, 6.989005149182329E+07, 3.956588038401099E+08, -1.426542198345353E+07,
2461239.500000000, A.D. 2026-Jul-18 00:00:00.0000, 5.885934401441333E+07, 3.979346995777965E+08, -1.433452267666502E+07,
2461246.500000000, A.D. 2026-Jul-25 00:00:00.0000, 4.778474002343705E+07, 3.999144292932367E+08, -1.439294947657080E+07,
2461253.500000000, A.D. 2026-Aug-01 00:00:00.0000, 3.667460730973990E+07, 4.015976197575419E+08, -1.444069805312225E+07,
2461260.500000000, A.D. 2026-Aug-08 00:00:00.0000, 2.553728130329113E+07, 4.029841524953952E+08, -1.447777327016735E+07,
2461267.500000000, A.D. 2026-Aug-15 00:00:00.0000, 1.438105738465243E+07, 4.040741602265251E+08, -1.450418914543775E+07,
2461274.500000000, A.D. 2026-Aug-22 00:00:00.0000, 3.214183380871215E+06, 4.048680245039084E+08, -1.451996866916773E+07,
2461281.500000000, A.D. 2026-Aug-29 00:00:00.0000, -7.955150028896780E+06, 4.053663731941480E+08, -1.452514338444453E+07,
2461288.500000000, A.D. 2026-Sep-05 00:00:00.0000, -1.911881885563205E+07, 4.055700749471070E+08, -1.451975315931776E+07,
$$EOE